NORAD_CAT_ID,OBJECT_NAME,OBJECT_TYPE,EPOCH,MEAN_MOTION,ECCENTRICITY,INCLINATION,RA_OF_ASC_NODE,ARG_OF_PERICENTER,MEAN_ANOMALY,BSTAR,MEAN_MOTION_DOT,MEAN_MOTION_DDOT,TLE_LINE0,TLE_LINE1,TLE_LINE2,SEMIMAJOR_AXIS,PERIOD,APOGEE,PERIGEE,DECAYED
49164.0,STARLINK-3106,PAYLOAD,2022-10-14 05:37:10,14.983448499999998,0.0003292,70.0008,167.1247,252.8816,107.1982,0.00038329,4.485e-05,0.0,0 STARLINK-3106,1 49164U 21082AL  22287.23414887  .00004485  00000-0  38329-3 0  9994,2 49164  70.0008 167.1247 0003292 252.8816 107.1982 14.98344850 61536,6950.147,96.106,574.3,569.724,0.0
49164.0,STARLINK-3106,PAYLOAD,2022-10-14 20:02:22,14.98357317,0.0003185,70.0006,165.61,252.2741,107.807,0.0009849,0.00011687,0.0,0 STARLINK-3106,1 49164U 21082AL  22287.83498183  .00011687  00000-0  98490-3 0  9998,2 49164  70.0006 165.6100 0003185 252.2741 107.8070 14.98357317 61624,6950.108,96.105,574.187,569.76,0.0
49164.0,STARLINK-3106,PAYLOAD,2022-10-15 00:50:46,14.98351685,0.0003197,70.0005,165.105,252.5315,107.5495,0.00062391,7.363e-05,0.0,0 STARLINK-3106,1 49164U 21082AL  22288.03526049  .00007363  00000-0  62391-3 0  9991,2 49164  70.0005 165.1050 0003197 252.5315 107.5495 14.98351685 61658,6950.126,96.106,574.2130000000002,569.769,0.0
49164.0,STARLINK-3106,PAYLOAD,2022-10-15 16:52:06,14.98343882,0.0003096,70.0002,163.4217,251.9205,108.1617,0.00017277,1.97e-05,0.0,0 STARLINK-3106,1 49164U 21082AL  22288.70285664  .00001970  00000-0  17277-3 0  9991,2 49164  70.0002 163.4217 0003096 251.9205 108.1617 14.98343882 61754,6950.15,96.106,574.1669999999998,569.863,0.0
49164.0,STARLINK-3106,PAYLOAD,2022-10-16 02:28:55,14.98333532,0.0003259,70.0008,162.4123,252.0063,108.0741,-0.00012791,-1.619e-05,0.0,0 STARLINK-3106,1 49164U 21082AL  22289.10341868 -.00001619  00000-0 -12791-3 0  9993,2 49164  70.0008 162.4123 0003259 252.0063 108.0741 14.98333532 61815,6950.182,96.107,574.312,569.7819999999998,0.0
49164.0,STARLINK-3106,PAYLOAD,2022-10-16 18:30:16,14.98320341,0.0002986,70.0011,160.7289,242.9423,117.1431,-0.00027182,-3.334e-05,0.0,0 STARLINK-3106,1 49164U 21082AL  22289.77102649 -.00003334  00000-0 -27182-3 0  9994,2 49164  70.0011 160.7289 0002986 242.9423 117.1431 14.98320341 61919,6950.223000000001,96.108,574.163,570.012,0.0
49164.0,STARLINK-3106,PAYLOAD,2022-10-16 20:06:24,14.98323228,0.0002955,70.001,160.5606,241.164,118.9222,-0.00022784,-2.81e-05,0.0,0 STARLINK-3106,1 49164U 21082AL  22289.83778763 -.00002810  00000-0 -22784-3 0  9998,2 49164  70.0010 160.5606 0002955 241.1640 118.9222 14.98323228 61922,6950.214,96.107,574.133,570.025,0.0
49164.0,STARLINK-3106,PAYLOAD,2022-10-17 08:55:29,14.98325897,0.0003168,70.0007,159.2135,252.5572,107.5241,3.8609e-05,3.68e-06,0.0,0 STARLINK-3106,1 49164U 21082AL  22290.37186901  .00000368  00000-0  38609-4 0  9994,2 49164  70.0007 159.2135 0003168 252.5572 107.5241 14.98325897 62006,6950.206,96.107,574.2719999999998,569.869,0.0
49164.0,STARLINK-3106,PAYLOAD,2022-10-17 18:32:17,14.98328475,0.0003369,70.0003,158.204,253.6667,106.4122,0.00023358,2.695e-05,0.0,0 STARLINK-3106,1 49164U 21082AL  22290.77242886  .00002695  00000-0  23358-3 0  9992,2 49164  70.0003 158.2040 0003369 253.6667 106.4122 14.98328475 62063,6950.198,96.107,574.404,569.721,0.0
49164.0,STARLINK-3106,PAYLOAD,2022-10-18 08:57:30,14.98331773,0.0003247,70.0006,156.6891,247.8726,112.2088,0.00038149,4.462e-05,0.0,0 STARLINK-3106,1 49164U 21082AL  22291.37326883  .00004462  00000-0  38149-3 0  9997,2 49164  70.0006 156.6891 0003247 247.8726 112.2088 14.98331773 62159,6950.187,96.107,574.309,569.7959999999998,0.0
49164.0,STARLINK-3106,PAYLOAD,2022-10-18 15:22:02,14.98332674,0.0003312,70.0004,156.0161,253.3597,106.7199,0.00031922,3.718e-05,0.0,0 STARLINK-3106,1 49164U 21082AL  22291.64030875  .00003718  00000-0  31922-3 0  9995,2 49164  70.0004 156.0161 0003312 253.3597 106.7199 14.98332674 62198,6950.185,96.107,574.352,569.748,0.0
49164.0,STARLINK-3106,PAYLOAD,2022-10-19 02:34:59,14.98326084,0.0003368,70.0003,154.8379,253.0397,107.0393,8.9455e-05,9.74e-06,0.0,0 STARLINK-3106,1 49164U 21082AL  22292.10763305  .00000974  00000-0  89455-4 0  9994,2 49164  70.0003 154.8379 0003368 253.0397 107.0393 14.98326084 62266,6950.205,96.107,574.411,569.729,0.0
49164.0,STARLINK-3106,PAYLOAD,2022-10-19 21:48:36,14.98333912,0.000339,69.9989,152.81799999999996,252.5993,107.4795,0.00010535,1.164e-05,0.0,0 STARLINK-3106,1 49164U 21082AL  22292.90875047  .00001164  00000-0  10535-3 0  9993,2 49164  69.9989 152.8180 0003390 252.5993 107.4795 14.98333912 62386,6950.181,96.107,574.4019999999998,569.69,0.0
49164.0,STARLINK-3106,PAYLOAD,2022-10-20 02:37:00,14.98335482,0.0003376999999999,69.9989,152.3129,252.4902,107.5888,0.00010861,1.203e-05,0.0,0 STARLINK-3106,1 49164U 21082AL  22293.10902861  .00001203  00000-0  10861-3 0  9997,2 49164  69.9989 152.3129 0003377 252.4902 107.5888 14.98335482 62410,6950.176,96.107,574.388,569.694,0.0
49164.0,STARLINK-3106,PAYLOAD,2022-10-20 13:49:56,14.98337632,0.0003485,69.999,151.1342,250.5667,109.5116,8.4295e-05,9.13e-06,0.0,0 STARLINK-3106,1 49164U 21082AL  22293.57634503  .00000913  00000-0  84295-4 0  9993,2 49164  69.9990 151.1342 0003485 250.5667 109.5116 14.98337632 62485,6950.169,96.107,574.456,569.612,0.0
49164.0,STARLINK-3106,PAYLOAD,2022-10-21 02:39:00,14.98339407,0.0003351999999999,69.9987,149.7877,251.6489,108.4306,0.00026522,3.074e-05,0.0,0 STARLINK-3106,1 49164U 21082AL  22294.11042064  .00003074  00000-0  26522-3 0  9998,2 49164  69.9987 149.7877 0003352 251.6489 108.4306 14.98339407 62564,6950.1640000000025,96.106,574.3580000000002,569.6990000000002,0.0
49164.0,STARLINK-3106,PAYLOAD,2022-10-21 07:27:24,14.98341292,0.0003338,69.9987,149.2827,251.5578,108.5218,0.00025023,2.895e-05,0.0,0 STARLINK-3106,1 49164U 21082AL  22294.31069907  .00002895  00000-0  25023-3 0  9990,2 49164  69.9987 149.2827 0003338 251.5578 108.5218 14.98341292 62597,6950.158,96.106,574.3430000000002,569.703,0.0
49164.0,STARLINK-3106,PAYLOAD,2022-10-21 15:28:04,14.98340188,0.000292,69.9984,148.4416,248.8615,111.2232,0.00017058,1.943e-05,0.0,0 STARLINK-3106,1 49164U 21082AL  22294.64450097  .00001943  00000-0  17058-3 0  9992,2 49164  69.9984 148.4416 0002920 248.8615 111.2232 14.98340188 62642,6950.161,96.106,574.056,569.997,0.0
49164.0,STARLINK-3106,PAYLOAD,2022-10-22 01:04:53,14.98331777,0.0003312,69.9987,147.431,250.4907,109.5895,4.9322e-05,4.96e-06,0.0,0 STARLINK-3106,1 49164U 21082AL  22295.04506610  .00000496  00000-0  49322-4 0  9992,2 49164  69.9987 147.4310 0003312 250.4907 109.5895 14.98331777 62702,6950.187,96.107,574.354,569.75,0.0
49164.0,STARLINK-3106,PAYLOAD,2022-10-22 10:41:41,14.98336622,0.0003288999999999,69.9987,146.4207,251.6975,108.3826,7.8439e-05,8.43e-06,0.0,0 STARLINK-3106,1 49164U 21082AL  22295.44562207  .00000843  00000-0  78439-4 0  9997,2 49164  69.9987 146.4207 0003289 251.6975 108.3826 14.98336622 62768,6950.172,96.107,574.323,569.752,0.0
49164.0,STARLINK-3106,PAYLOAD,2022-10-22 20:18:29,14.98339575,0.0003359,69.9986,145.4106,251.7144,108.365,5.2049e-05,5.28e-06,0.0,0 STARLINK-3106,1 49164U 21082AL  22295.84617913  .00000528  00000-0  52049-4 0  9995,2 49164  69.9986 145.4106 0003359 251.7144 108.3650 14.98339575 62823,6950.163000000001,96.106,574.363,569.694,0.0
49164.0,STARLINK-3106,PAYLOAD,2022-10-23 01:06:54,14.98328489,0.0003413,69.9984,144.9055,250.9418,109.1372,-8.7573e-05,-1.138e-05,0.0,0 STARLINK-3106,1 49164U 21082AL  22296.04646821 -.00001138  00000-0 -87573-4 0  9998,2 49164  69.9984 144.9055 0003413 250.9418 109.1372 14.98328489 62859,6950.198,96.107,574.435,569.69,0.0
49164.0,STARLINK-3106,PAYLOAD,2022-10-23 07:31:27,14.98328821,0.0003509999999999,69.9985,144.2326,248.8929,111.1855,-6.7794e-05,-9.02e-06,0.0,0 STARLINK-3106,1 49164U 21082AL  22296.31350750 -.00000902  00000-0 -67794-4 0  9992,2 49164  69.9985 144.2326 0003510 248.8929 111.1855 14.98328821 62898,6950.196999999999,96.107,574.501,569.622,0.0
49164.0,STARLINK-3106,PAYLOAD,2022-10-23 17:08:15,14.98322913,0.000336,69.9983,143.2222,249.6353,110.4445,2.1477e-05,1.63e-06,0.0,0 STARLINK-3106,1 49164U 21082AL  22296.71407018  .00000163  00000-0  21477-4 0  9991,2 49164  69.9983 143.2222 0003360 249.6353 110.4445 14.98322913 62953,6950.215,96.107,574.415,569.745,0.0
49164.0,STARLINK-3106,PAYLOAD,2022-10-24 01:08:56,14.98322767,0.0003098,69.9989,142.3809,244.2945,115.7894,9.0864e-05,9.91e-06,0.0,0 STARLINK-3106,1 49164U 21082AL  22297.04787080  .00000991  00000-0  90864-4 0  9993,2 49164  69.9989 142.3809 0003098 244.2945 115.7894 14.98322767 63006,6950.215,96.107,574.2330000000002,569.927,0.0
49164.0,STARLINK-3106,PAYLOAD,2022-10-24 07:33:28,14.98327022,0.0002973999999999,69.9989,141.7076,253.6759,106.4073,3.5416e-05,3.3e-06,0.0,0 STARLINK-3106,1 49164U 21082AL  22297.31491092  .00000330  00000-0  35416-4 0  9997,2 49164  69.9989 141.7076 0002974 253.6759 106.4073 14.98327022 63043,6950.2019999999975,96.107,574.134,570.0,0.0
49164.0,STARLINK-3106,PAYLOAD,2022-10-24 17:10:16,14.98328935,0.0003269,69.9987,140.6976,249.9954,110.0853,2.7192e-05,2.31e-06,0.0,0 STARLINK-3106,1 49164U 21082AL  22297.71546960  .00000231  00000-0  27192-4 0  9998,2 49164  69.9987 140.6976 0003269 249.9954 110.0853 14.98328935 63109,6950.196,96.107,574.3330000000002,569.789,0.0
49164.0,STARLINK-3106,PAYLOAD,2022-10-25 01:10:56,14.98326104,0.0003242,69.9988,139.856,248.9223,111.1589,0.00011246,1.249e-05,0.0,0 STARLINK-3106,1 49164U 21082AL  22298.04927004  .00001249  00000-0  11246-3 0  9999,2 49164  69.9988 139.8560 0003242 248.9223 111.1589 14.98326104 63157,6950.205,96.107,574.323,569.817,0.0
49164.0,STARLINK-3106,PAYLOAD,2022-10-25 12:23:53,14.98326099,0.0003258,69.9988,138.6777,248.6417,111.4394,0.00011759,1.31e-05,0.0,0 STARLINK-3106,1 49164U 21082AL  22298.51659119  .00001310  00000-0  11759-3 0  9998,2 49164  69.9988 138.6777 0003258 248.6417 111.4394 14.98326099 63221,6950.205,96.107,574.3340000000002,569.806,0.0
